{
    "links": {
        "self": "http://www.neowsapp.com/rest/v1/neo/3989261?api_key=iIulBulltgU6a56xZRHN4H3l9WmuAYTsLGpBGhQ2"
    },
    "id": "3989261",
    "neo_reference_id": "3989261",
    "name": "(2020 BN11)",
    "designation": "2020 BN11",
    "nasa_jpl_url": "http://ssd.jpl.nasa.gov/sbdb.cgi?sstr=3989261",
    "absolute_magnitude_h": 22.775,
    "estimated_diameter": {
        "kilometers": {
            "estimated_diameter_min": 0.0740551007,
            "estimated_diameter_max": 0.1655922392
        },
        "meters": {
            "estimated_diameter_min": 74.0551006622,
            "estimated_diameter_max": 165.5922391612
        },
        "miles": {
            "estimated_diameter_min": 0.046015692,
            "estimated_diameter_max": 0.1028942152
        },
        "feet": {
            "estimated_diameter_min": 242.9629364565,
            "estimated_diameter_max": 543.2816419297
        }
    },
    "is_potentially_hazardous_asteroid": false,
    "close_approach_data": [
        {
            "close_approach_date": "2020-01-03",
            "close_approach_date_full": "2020-Jan-03 15:37",
            "epoch_date_close_approach": 1578065820000,
            "relative_velocity": {
                "kilometers_per_second": "19.8574199477",
                "kilometers_per_hour": "71486.7118117636",
                "miles_per_hour": "44419.0626810372"
            },
            "miss_distance": {
                "astronomical": "0.2500351411",
                "lunar": "97.2636698879",
                "kilometers": "37404724.533709457",
                "miles": "23242218.0692742266"
            },
            "orbiting_body": "Earth"
        }
    ],
    "orbital_data": {
        "orbit_id": "3",
        "orbit_determination_date": "2020-01-31 06:45:52",
        "first_observation_date": "2020-01-17",
        "last_observation_date": "2020-01-30",
        "data_arc_in_days": 13,
        "observations_used": 15,
        "orbit_uncertainty": "9",
        "minimum_orbit_intersection": ".0969583",
        "jupiter_tisserand_invariant": "3.496",
        "epoch_osculation": "2458877.5",
        "eccentricity": ".5975080667498966",
        "semi_major_axis": "2.09095807822914",
        "inclination": "7.744574598343015",
        "ascending_node_longitude": "27.24668596021989",
        "orbital_period": "1104.374614936078",
        "perihelion_distance": ".8415937592513675",
        "perihelion_argument": "7.892404276380489",
        "aphelion_distance": "3.340322397206913",
        "perihelion_time": "2458813.880363205745",
        "mean_anomaly": "20.73849664432703",
        "mean_motion": ".3259763445584424",
        "equinox": "J2000",
        "orbit_class": {
            "orbit_class_type": "APO",
            "orbit_class_description": "Near-Earth asteroid orbits which cross the Earth’s orbit similar to that of 1862 Apollo",
            "orbit_class_range": "a (semi-major axis) > 1.0 AU; q (perihelion) < 1.017 AU"
        }
    },
    "is_sentry_object": false
}